{
 "type": "FeatureCollection",
 "features": [
  {
   "type": "Feature",
   "id": "calib-1",
   "geometry": {
    "type": "Point",
    "coordinates": [
     -200,
     -200
    ]
   },
   "properties": {
    "objectType": "annotation",
    "name": "calib1"
   }
  },
  {
   "type": "Feature",
   "id": "calib-2",
   "geometry": {
    "type": "Point",
    "coordinates": [
     2711,
     -200
    ]
   },
   "properties": {
    "objectType": "annotation",
    "name": "calib2"
   }
  },
  {
   "type": "Feature",
   "id": "calib-3",
   "geometry": {
    "type": "Point",
    "coordinates": [
     -200,
     3339
    ]
   },
   "properties": {
    "objectType": "annotation",
    "name": "calib3"
   }
  },
  {
   "type": "Feature",
   "id": "65cc1adf-83c6-4d50-b349-7a76e5c42733",
   "geometry": {
    "type": "Polygon",
    "coordinates": [
     [
      [
       1086.43,
       667.23
      ],
      [
       1091.24,
       686.49
      ],
      [
       1092.71,
       687.85
      ],
      [
       1094.56,
       687.11
      ],
      [
       1097.7,
       684.63
      ],
      [
       1098.81,
       682.96
      ],
      [
       1101.73,
       675.53
      ],
      [
       1101.26,
       673.59
      ],
      [
       1099.84,
       672.18
      ],
      [
       1096.33,
       665
      ],
      [
       1094.85,
       663.17
      ],
      [
       1090.88,
       663.22
      ],
      [
       1086.43,
       667.23
      ]
     ]
    ]
   },
   "properties": {
    "objectType": "cell",
    "classification": {
     "name": "Immune cells",
     "color": [
      0,
      255,
      0
     ]
    }
   }
  },
  {
   "type": "Feature",
   "id": "f2a39ee1-d975-4d90-aaf5-12147cef3a77",
   "geometry": {
    "type": "Polygon",
    "coordinates": [
     [
      [
       1187,
       673.16
      ],
      [
       1187.23,
       679.15
      ],
      [
       1189.99,
       681.99
      ],
      [
       1193.6,
       683.72
      ],
      [
       1201.26,
       685.87
      ],
      [
       1202.92,
       684.75
      ],
      [
       1206.15,
       677.52
      ],
      [
       1208.75,
       674.49
      ],
      [
       1210.82,
       668.88
      ],
      [
       1210.33,
       665
      ],
      [
       1207.56,
       664
      ],
      [
       1193.56,
       664
      ],
      [
       1191.68,
       664.66
      ],
      [
       1188.84,
       667.49
      ],
      [
       1187,
       673.16
      ]
     ]
    ]
   },
   "properties": {
    "objectType": "cell",
    "classification": {
     "name": "Tumor",
     "color": [
      255,
      0,
      0
     ]
    }
   }
  },
  {
   "type": "Feature",
   "id": "fb972fc1-b09b-4d9f-93a5-2345adc9243b",
   "geometry": {
    "type": "Polygon",
    "coordinates": [
     [
      [
       896,
       667.7
      ],
      [
       896.14,
       673.69
      ],
      [
       896.65,
       675.63
      ],
      [
       896,
       677.52
      ],
      [
       896.46,
       683.46
      ],
      [
       898.45,
       683.71
      ],
      [
       906.15,
       681.77
      ],
      [
       911.58,
       679.21
      ],
      [
       915.54,
       678.69
      ],
      [
       919.13,
       676.93
      ],
      [
       920.75,
       673.27
      ],
      [
       920.64,
       671.28
      ],
      [
       916.33,
       667.16
      ],
      [
       904.33,
       667
      ],
      [
       903.05,
       666.04
      ],
      [
       897.05,
       666
      ],
      [
       896,
       667.7
      ]
     ]
    ]
   },
   "properties": {
    "objectType": "cell",
    "classification": {
     "name": "Tumor",
     "color": [
      255,
      0,
      0
     ]
    }
   }
  },
  {
   "type": "Feature",
   "id": "8b4169dc-01fe-4221-a71e-4f53dc5ae87a",
   "geometry": {
    "type": "Polygon",
    "coordinates": [
     [
      [
       1202.68,
       685.66
      ],
      [
       1205.96,
       692.92
      ],
      [
       1206.52,
       696.85
      ],
      [
       1208.26,
       697.85
      ],
      [
       1212.15,
       696.93
      ],
      [
       1219.46,
       693.77
      ],
      [
       1222.81,
       691.6
      ],
      [
       1228.49,
       689.7
      ],
      [
       1229.77,
       688.16
      ],
      [
       1229,
       682.29
      ],
      [
       1229,
       674.29
      ],
      [
       1228.15,
       672.48
      ],
      [
       1223.9,
       668.24
      ],
      [
       1220.4,
       666
      ],
      [
       1212.48,
       666.52
      ],
      [
       1209.79,
       674.03
      ],
      [
       1206.12,
       678.75
      ],
      [
       1206,
       680.75
      ],
      [
       1202.68,
       685.66
      ]
     ]
    ]
   },
   "properties": {
    "objectType": "cell",
    "classification": {
     "name": "Tumor",
     "color": [
      255,
      0,
      0
     ]
    }
   }
  },
  {
   "type": "Feature",
   "id": "09393380-99ea-4fae-b919-edfc7219cbd2",
   "geometry": {
    "type": "Polygon",
    "coordinates": [
     [
      [
       1230,
       676.36
      ],
      [
       1230.17,
       684.35
      ],
      [
       1231.24,
       688.19
      ],
      [
       1232.5,
       689.75
      ],
      [
       1237.86,
       692.43
      ],
      [
       1241.66,
       693.66
      ],
      [
       1244.2,
       690.6
      ],
      [
       1246.88,
       685.23
      ],
      [
       1247.37,
       681.27
      ],
      [
       1249,
       675.53
      ],
      [
       1248.32,
       673.65
      ],
      [
       1243.3,
       670
      ],
      [
       1237.31,
       670.14
      ],
      [
       1233.64,
       671.7
      ],
      [
       1230,
       676.36
      ]
     ]
    ]
   },
   "properties": {
    "objectType": "cell",
    "classification": {
     "name": "Tumor",
     "color": [
      255,
      0,
      0
     ]
    }
   }
  },
  {
   "type": "Feature",
   "id": "22e0e65e-97ab-43a6-9c3c-ee4b0ba804b5",
   "geometry": {
    "type": "Polygon",
    "coordinates": [
     [
      [
       920.36,
       677.4
      ],
      [
       923.85,
       682.18
      ],
      [
       926.87,
       687.36
      ],
      [
       929.16,
       692.83
      ],
      [
       931.61,
       695.95
      ],
      [
       936.02,
       700.01
      ],
      [
       937.99,
       700.34
      ],
      [
       939.4,
       698.93
      ],
      [
       940.89,
       695.23
      ],
      [
       945.67,
       686.47
      ],
      [
       944.94,
       684.61
      ],
      [
       939.6,
       676.19
      ],
      [
       934.37,
       671.25
      ],
      [
       924.39,
       671
      ],
      [
       922.58,
       671.84
      ],
      [
       920.36,
       677.4
      ]
     ]
    ]
   },
   "properties": {
    "objectType": "cell",
    "classification": {
     "name": "Tumor",
     "color": [
      255,
      0,
      0
     ]
    }
   }
  },
  {
   "type": "Feature",
   "id": "da1f5950-a7c2-4849-804b-1b367a831c0b",
   "geometry": {
    "type": "Polygon",
    "coordinates": [
     [
      [
       990.49,
       680.81
      ],
      [
       992.81,
       684.07
      ],
      [
       993.21,
       686.03
      ],
      [
       997.9,
       692.41
      ],
      [
       999.44,
       691.13
      ],
      [
       1002.12,
       685.76
      ],
      [
       1002.37,
       683.78
      ],
      [
       1000.6,
       680.19
      ],
      [
       996.33,
       676
      ],
      [
       994.38,
       676.29
      ],
      [
       990.49,
       680.81
      ]
     ]
    ]
   },
   "properties": {
    "objectType": "cell",
    "classification": {
     "name": "Immune cells",
     "color": [
      0,
      255,
      0
     ]
    }
   }
  },
  {
   "type": "Feature",
   "id": "d2a0d24b-d45a-4e5a-aa3a-0e18f01ea251",
   "geometry": {
    "type": "Polygon",
    "coordinates": [
     [
      [
       804,
       680.57
      ],
      [
       805.02,
       684.35
      ],
      [
       807.85,
       687.18
      ],
      [
       812,
       694
      ],
      [
       818.45,
       698.72
      ],
      [
       825.92,
       701.41
      ],
      [
       828.75,
       698.58
      ],
      [
       829.33,
       696.67
      ],
      [
       828,
       686.83
      ],
      [
       829,
       682.96
      ],
      [
       828.98,
       678.96
      ],
      [
       825.02,
       674.51
      ],
      [
       819.91,
       672
      ],
      [
       811.91,
       672.04
      ],
      [
       805.7,
       676.97
      ],
      [
       804,
       680.57
      ]
     ]
    ]
   },
   "properties": {
    "objectType": "cell",
    "classification": {
     "name": "Tumor",
     "color": [
      255,
      0,
      0
     ]
    }
   }
  },
  {
   "type": "Feature",
   "id": "47dccce3-1b96-4050-a32a-70fed77101f0",
   "geometry": {
    "type": "Polygon",
    "coordinates": [
     [
      [
       1156.33,
       691.55
      ],
      [
       1158,
       695.18
      ],
      [
       1158.09,
       697.18
      ],
      [
       1159.93,
       702.86
      ],
      [
       1162.11,
       706.21
      ],
      [
       1163.95,
       706.99
      ],
      [
       1167.38,
       704.96
      ],
      [
       1177.28,
       695.06
      ],
      [
       1180.18,
       687.65
      ],
      [
       1184.77,
       681.14
      ],
      [
       1184.6,
       677.19
      ],
      [
       1181.9,
       674.24
      ],
      [
       1178.4,
       672
      ],
      [
       1172.42,
       672.29
      ],
      [
       1170.63,
       673.19
      ],
      [
       1164.9,
       678.77
      ],
      [
       1161.49,
       680.85
      ],
      [
       1158.23,
       685.86
      ],
      [
       1156.33,
       691.55
      ]
     ]
    ]
   },
   "properties": {
    "objectType": "cell",
    "classification": {
     "name": "Tumor",
     "color": [
      255,
      0,
      0
     ]
    }
   }
  },
  {
   "type": "Feature",
   "id": "99eb73e1-e864-4396-a215-6fbcbff1063c",
   "geometry": {
    "type": "Polygon",
    "coordinates": [
     [
      [
       895.21,
       693.41
      ],
      [
       900.22,
       699.56
      ],
      [
       903.68,
       701.37
      ],
      [
       904.62,
       705.24
      ],
      [
       910.51,
       710.61
      ],
      [
       917.76,
       707.25
      ],
      [
       921.61,
       706.2
      ],
      [
       931.61,
       699.72
      ],
      [
       932.41,
       697.89
      ],
      [
       927.35,
       691.7
      ],
      [
       925.39,
       686.06
      ],
      [
       923.32,
       682.65
      ],
      [
       918.09,
       678.46
      ],
      [
       912.38,
       680
      ],
      [
       906.95,
       682.53
      ],
      [
       895.31,
       685.45
      ],
      [
       895.21,
       693.41
      ]
     ]
    ]
   },
   "properties": {
    "objectType": "cell",
    "classification": {
     "name": "Tumor",
     "color": [
      255,
      0,
      0
     ]
    }
   }
  },
  {
   "type": "Feature",
   "id": "cae3e8ce-07fc-47cb-841a-be637628851c",
   "geometry": {
    "type": "Polygon",
    "coordinates": [
     [
      [
       977.51,
       694.14
      ],
      [
       979.94,
       697.27
      ],
      [
       981.82,
       697.96
      ],
      [
       985.65,
       696.87
      ],
      [
       992.73,
       693.14
      ],
      [
       996.43,
       691.97
      ],
      [
       992.66,
       687.31
      ],
      [
       991.72,
       683.44
      ],
      [
       990.08,
       681.75
      ],
      [
       986.23,
       681.15
      ],
      [
       983.26,
       683.72
      ],
      [
       980,
       691
      ],
      [
       977.51,
       694.14
      ]
     ]
    ]
   },
   "properties": {
    "objectType": "cell",
    "classification": {
     "name": "Immune cells",
     "color": [
      0,
      255,
      0
     ]
    }
   }
  },
  {
   "type": "Feature",
   "id": "5e5f2b82-aa45-4b42-8ccb-e8fbd1bd5797",
   "geometry": {
    "type": "Polygon",
    "coordinates": [
     [
      [
       950.33,
       687.25
      ],
      [
       957.18,
       694.52
      ],
      [
       960.68,
       699.34
      ],
      [
       966.05,
       702
      ],
      [
       969.96,
       701.38
      ],
      [
       971.99,
       698.06
      ],
      [
       971.55,
       692.11
      ],
      [
       969.42,
       688.75
      ],
      [
       965.86,
       686.93
      ],
      [
       960.91,
       682.6
      ],
      [
       956.96,
       683.02
      ],
      [
       951.6,
       685.7
      ],
      [
       950.33,
       687.25
      ]
     ]
    ]
   },
   "properties": {
    "objectType": "cell",
    "classification": {
     "name": "Immune cells",
     "color": [
      0,
      255,
      0
     ]
    }
   }
  },
  {
   "type": "Feature",
   "id": "db44a291-f2e1-4460-9753-15c9a7ad992f",
   "geometry": {
    "type": "Polygon",
    "coordinates": [
     [
      [
       1070.33,
       692.48
      ],
      [
       1072,
       696.11
      ],
      [
       1072.02,
       700.11
      ],
      [
       1074.43,
       707.69
      ],
      [
       1078.39,
       707.8
      ],
      [
       1087.09,
       699.57
      ],
      [
       1089.89,
       692.22
      ],
      [
       1088.93,
       690.46
      ],
      [
       1081.73,
       687.07
      ],
      [
       1075.8,
       682.1
      ],
      [
       1074.29,
       683.41
      ],
      [
       1070.33,
       692.48
      ]
     ]
    ]
   },
   "properties": {
    "objectType": "cell",
    "classification": {
     "name": "Immune cells",
     "color": [
      0,
      255,
      0
     ]
    }
   }
  },
  {
   "type": "Feature",
   "id": "8cf7f184-5a28-42f3-83bf-dd525a9ddfc6",
   "geometry": {
    "type": "Polygon",
    "coordinates": [
     [
      [
       851,
       687.32
      ],
      [
       851.15,
       689.31
      ],
      [
       855.12,
       693.78
      ],
      [
       856.76,
       697.43
      ],
      [
       863.46,
       704.8
      ],
      [
       865.17,
       705.83
      ],
      [
       867.17,
       705.77
      ],
      [
       868.77,
       704.56
      ],
      [
       869.33,
       702.64
      ],
      [
       867.77,
       696.86
      ],
      [
       866.23,
       693.17
      ],
      [
       865.91,
       689.24
      ],
      [
       863.17,
       686.33
      ],
      [
       857.15,
       679.1
      ],
      [
       853.27,
       679.66
      ],
      [
       851,
       687.32
      ]
     ]
    ]
   },
   "properties": {
    "objectType": "cell",
    "classification": {
     "name": "Tumor",
     "color": [
      255,
      0,
      0
     ]
    }
   }
  },
  {
   "type": "Feature",
   "id": "8fcfdce8-3741-4104-8b01-9756fb4dba0e",
   "geometry": {
    "type": "Polygon",
    "coordinates": [
     [
      [
       1046.05,
       685.74
      ],
      [
       1049.26,
       697.26
      ],
      [
       1051.12,
       698
      ],
      [
       1054.96,
       697.02
      ],
      [
       1056.91,
       697.47
      ],
      [
       1062.57,
       691.85
      ],
      [
       1062.77,
       689.86
      ],
      [
       1060.97,
       686.3
      ],
      [
       1059.33,
       685.16
      ],
      [
       1053.33,
       685
      ],
      [
       1051.25,
       684
      ],
      [
       1047.26,
       684.15
      ],
      [
       1046.05,
       685.74
      ]
     ]
    ]
   },
   "properties": {
    "objectType": "cell",
    "classification": {
     "name": "Immune cells",
     "color": [
      0,
      255,
      0
     ]
    }
   }
  },
  {
   "type": "Feature",
   "id": "b22aa135-6435-44c7-a53c-acad941e3e3c",
   "geometry": {
    "type": "Polygon",
    "coordinates": [
     [
      [
       1178.57,
       697.14
      ],
      [
       1181.35,
       700.02
      ],
      [
       1184.54,
       705.08
      ],
      [
       1188.73,
       709.37
      ],
      [
       1194.62,
       709.88
      ],
      [
       1200.63,
       704.7
      ],
      [
       1201.78,
       700.88
      ],
      [
       1204.52,
       697.96
      ],
      [
       1204.54,
       692.08
      ],
      [
       1201.28,
       687.14
      ],
      [
       1193.67,
       684.73
      ],
      [
       1188.05,
       681.72
      ],
      [
       1186.07,
       681.47
      ],
      [
       1183.32,
       684.35
      ],
      [
       1179.37,
       691.26
      ],
      [
       1178.57,
       697.14
      ]
     ]
    ]
   },
   "properties": {
    "objectType": "cell",
    "classification": {
     "name": "Tumor",
     "color": [
      255,
      0,
      0
     ]
    }
   }
  },
  {
   "type": "Feature",
   "id": "96931525-0f3d-4546-99ba-f107230b5a94",
   "geometry": {
    "type": "Polygon",
    "coordinates": [
     [
      [
       794,
       691.44
      ],
      [
       794.21,
       697.42
      ],
      [
       795.11,
       699.21
      ],
      [
       799.49,
       703.25
      ],
      [
       801.46,
       702.88
      ],
      [
       808.53,
       695.81
      ],
      [
       810.24,
       694.76
      ],
      [
       810.39,
       692.77
      ],
      [
       807.32,
       687.65
      ],
      [
       802.62,
       684
      ],
      [
       800.63,
       684.19
      ],
      [
       798.99,
       685.34
      ],
      [
       794.75,
       689.58
      ],
      [
       794,
       691.44
      ]
     ]
    ]
   },
   "properties": {
    "objectType": "cell",
    "classification": {
     "name": "Tumor",
     "color": [
      255,
      0,
      0
     ]
    }
   }
  },
  {
   "type": "Feature",
   "id": "7f534b70-e7ba-434d-9ea4-d7be45aa708b",
   "geometry": {
    "type": "Polygon",
    "coordinates": [
     [
      [
       940.54,
       699.95
      ],
      [
       946.98,
       704.65
      ],
      [
       949.02,
       708.08
      ],
      [
       951.96,
       715.46
      ],
      [
       957.11,
       712.44
      ],
      [
       961.98,
       709.01
      ],
      [
       967.81,
       707.6
      ],
      [
       969,
       705.99
      ],
      [
       968.99,
       703.99
      ],
      [
       965.28,
       702.64
      ],
      [
       960.06,
       699.72
      ],
      [
       956.48,
       694.97
      ],
      [
       948.04,
       686.33
      ],
      [
       946.32,
       687.36
      ],
      [
       943.62,
       692.71
      ],
      [
       941.47,
       696.06
      ],
      [
       940.54,
       699.95
      ]
     ]
    ]
   },
   "properties": {
    "objectType": "cell",
    "classification": {
     "name": "Immune cells",
     "color": [
      0,
      255,
      0
     ]
    }
   }
  },
  {
   "type": "Feature",
   "id": "c403c9e5-fb6b-4ce7-bd6e-6399b415d894",
   "geometry": {
    "type": "Polygon",
    "coordinates": [
     [
      [
       1057.48,
       698.81
      ],
      [
       1058.7,
       700.4
      ],
      [
       1059,
       706.37
      ],
      [
       1062.07,
       711.4
      ],
      [
       1065.71,
       713
      ],
      [
       1069.45,
       711.88
      ],
      [
       1072.28,
       709.05
      ],
      [
       1072.97,
       707.17
      ],
      [
       1071.22,
       701.45
      ],
      [
       1070.7,
       695.48
      ],
      [
       1064.53,
       692.35
      ],
      [
       1062.57,
       692.76
      ],
      [
       1058.33,
       697
      ],
      [
       1057.48,
       698.81
      ]
     ]
    ]
   },
   "properties": {
    "objectType": "cell",
    "classification": {
     "name": "Immune cells",
     "color": [
      0,
      255,
      0
     ]
    }
   }
  },
  {
   "type": "Feature",
   "id": "b0ea069e-d89d-49d6-b9ba-f14a1db11629",
   "geometry": {
    "type": "Polygon",
    "coordinates": [
     [
      [
       1204,
       707.78
      ],
      [
       1204.37,
       715.75
      ],
      [
       1209.94,
       721.47
      ],
      [
       1215.87,
       722
      ],
      [
       1217.73,
       721.27
      ],
      [
       1221,
       714
      ],
      [
       1221,
       710
      ],
      [
       1223.45,
       706.88
      ],
      [
       1224.61,
       703.05
      ],
      [
       1226.67,
       699.64
      ],
      [
       1229,
       693.52
      ],
      [
       1228.56,
       691.56
      ],
      [
       1226.58,
       691.28
      ],
      [
       1222.81,
       692.59
      ],
      [
       1219.48,
       694.76
      ],
      [
       1208.26,
       698.95
      ],
      [
       1205.04,
       703.92
      ],
      [
       1204,
       707.78
      ]
     ]
    ]
   },
   "properties": {
    "objectType": "cell",
    "classification": {
     "name": "Tumor",
     "color": [
      255,
      0,
      0
     ]
    }
   }
  },
  {
   "type": "Feature",
   "id": "f24665b1-38e2-4579-8e34-ffcd52d81e6f",
   "geometry": {
    "type": "Polygon",
    "coordinates": [
     [
      [
       1127.06,
       712.7
      ],
      [
       1127.35,
       714.68
      ],
      [
       1131.59,
       718.92
      ],
      [
       1143.53,
       719.11
      ],
      [
       1147.43,
       719.71
      ],
      [
       1154.6,
       712.74
      ],
      [
       1161.57,
       708.86
      ],
      [
       1161.43,
       706.86
      ],
      [
       1158.36,
       701.73
      ],
      [
       1156.33,
       694
      ],
      [
       1154.77,
       693
      ],
      [
       1146.98,
       694.51
      ],
      [
       1145.19,
       695.41
      ],
      [
       1133.56,
       698.22
      ],
      [
       1128.23,
       700.83
      ],
      [
       1128,
       708.82
      ],
      [
       1127.06,
       712.7
      ]
     ]
    ]
   },
   "properties": {
    "objectType": "cell",
    "classification": {
     "name": "Tumor",
     "color": [
      255,
      0,
      0
     ]
    }
   }
  },
  {
   "type": "Feature",
   "id": "de429a8a-0321-43e9-b2c5-889aad2ed73c",
   "geometry": {
    "type": "Polygon",
    "coordinates": [
     [
      [
       756,
       709.74
      ],
      [
       756.87,
       711.54
      ],
      [
       761.11,
       715.78
      ],
      [
       762.78,
       716.89
      ],
      [
       764.78,
       717
      ],
      [
       770.46,
       715.11
      ],
      [
       780.46,
       715
      ],
      [
       786.03,
       712.79
      ],
      [
       792.96,
       705.71
      ],
      [
       794,
       704
      ],
      [
       794,
       700
      ],
      [
       793.42,
       698.08
      ],
      [
       789.18,
       693.84
      ],
      [
       787.33,
       693.07
      ],
      [
       779.33,
       693
      ],
      [
       777.81,
       692
      ],
      [
       765.81,
       692.1
      ],
      [
       762.45,
       694.22
      ],
      [
       756.79,
       699.88
      ],
      [
       756.05,
       701.74
      ],
      [
       756,
       709.74
      ]
     ]
    ]
   },
   "properties": {
    "objectType": "cell",
    "classification": {
     "name": "Tumor",
     "color": [
      255,
      0,
      0
     ]
    }
   }
  },
  {
   "type": "Feature",
   "id": "b1a8b257-08a8-41a1-b171-8d755b06527a",
   "geometry": {
    "type": "Polygon",
    "coordinates": [
     [
      [
       801.66,
       703.67
      ],
      [
       802.25,
       705.59
      ],
      [
       811.2,
       713.51
      ],
      [
       824.51,
       709.24
      ],
      [
       826,
       707.91
      ],
      [
       825.95,
       703.91
      ],
      [
       824.7,
       702.35
      ],
      [
       820.97,
       700.98
      ],
      [
       814.16,
       696.82
      ],
      [
       810.54,
       695.73
      ],
      [
       808.75,
       696.62
      ],
      [
       801.66,
       703.67
      ]
     ]
    ]
   },
   "properties": {
    "objectType": "cell",
    "classification": {
     "name": "Tumor",
     "color": [
      255,
      0,
      0
     ]
    }
   }
  },
  {
   "type": "Feature",
   "id": "6bc03afb-fc04-4118-abbc-44c4b3b5d0b0",
   "geometry": {
    "type": "Polygon",
    "coordinates": [
     [
      [
       1048.12,
       703.59
      ],
      [
       1049.35,
       705.17
      ],
      [
       1054.71,
       707.86
      ],
      [
       1058.66,
       708.31
      ],
      [
       1057.72,
       700.44
      ],
      [
       1054.42,
       698.29
      ],
      [
       1048.65,
       699.71
      ],
      [
       1048.12,
       703.59
      ]
     ]
    ]
   },
   "properties": {
    "objectType": "cell",
    "classification": {
     "name": "Immune cells",
     "color": [
      0,
      255,
      0
     ]
    }
   }
  },
  {
   "type": "Feature",
   "id": "d91a146f-b080-4b9f-afd0-6ce00647ed3d",
   "geometry": {
    "type": "Polygon",
    "coordinates": [
     [
      [
       1100.25,
       681.49
      ],
      [
       1100.82,
       683.41
      ],
      [
       1113.31,
       689.55
      ],
      [
       1114.86,
       688.28
      ],
      [
       1117.82,
       680.88
      ],
      [
       1118.37,
       674.24
      ],
      [
       1114.44,
       675
      ],
      [
       1104.45,
       675.11
      ],
      [
       1102.66,
       676.01
      ],
      [
       1100.25,
       681.49
      ]
     ]
    ]
   },
   "properties": {
    "objectType": "cell",
    "classification": {
     "names": [
      "Tumor",
      "Immune cells"
     ],
     "color": [
      0,
      255,
      127
     ]
    }
   }
  },
  {
   "type": "Feature",
   "id": "1410ba15-4d1e-4e24-868b-5e5018f46471",
   "geometry": {
    "type": "Polygon",
    "coordinates": [
     [
      [
       1093,
       690.33
      ],
      [
       1099.05,
       695.52
      ],
      [
       1102.94,
       696.47
      ],
      [
       1108,
       699.5
      ],
      [
       1109.79,
       698.61
      ],
      [
       1114.16,
       694.5
      ],
      [
       1114.81,
       692.61
      ],
      [
       1112.2,
       689.6
      ],
      [
       1106.66,
       687.33
      ],
      [
       1103.33,
       685.16
      ],
      [
       1100.49,
       684.33
      ],
      [
       1098.55,
       684.79
      ],
      [
       1093.9,
       688.55
      ],
      [
       1093,
       690.33
      ]
     ]
    ]
   },
   "properties": {
    "objectType": "cell",
    "classification": {
     "names": [
      "Tumor",
      "Immune cells"
     ],
     "color": [
      0,
      255,
      127
     ]
    }
   }
  },
  {
   "type": "Feature",
   "id": "851e68ff-773a-4d58-884a-8e26aacc534a",
   "geometry": {
    "type": "Polygon",
    "coordinates": [
     [
      [
       839.34,
       703.68
      ],
      [
       842,
       706.67
      ],
      [
       847.32,
       709.34
      ],
      [
       853.28,
       709.14
      ],
      [
       859.15,
       710
      ],
      [
       861.08,
       709.46
      ],
      [
       863.63,
       706.43
      ],
      [
       859.53,
       702.06
      ],
      [
       855.96,
       697.3
      ],
      [
       854.32,
       693.65
      ],
      [
       850.88,
       690.61
      ],
      [
       849.12,
       691.55
      ],
      [
       846.66,
       694.67
      ],
      [
       843.52,
       697.15
      ],
      [
       839.65,
       701.71
      ],
      [
       839.34,
       703.68
      ]
     ]
    ]
   },
   "properties": {
    "objectType": "cell",
    "classification": {
     "names": [
      "Tumor",
      "Immune cells"
     ],
     "color": [
      0,
      255,
      127
     ]
    }
   }
  },
  {
   "type": "Feature",
   "id": "2c3da267-fb14-4cdd-ad4e-bd0ccd0623ca",
   "geometry": {
    "type": "Polygon",
    "coordinates": [
     [
      [
       1089.26,
       697.29
      ],
      [
       1093.34,
       701.68
      ],
      [
       1095.13,
       705.26
      ],
      [
       1097.48,
       708.48
      ],
      [
       1099.16,
       709.58
      ],
      [
       1103.11,
       709.89
      ],
      [
       1104.34,
       708.32
      ],
      [
       1106.83,
       702.86
      ],
      [
       1106.77,
       700.87
      ],
      [
       1105.59,
       699.25
      ],
      [
       1102.23,
       697.12
      ],
      [
       1098.44,
       696.11
      ],
      [
       1095.6,
       693.3
      ],
      [
       1092.33,
       691
      ],
      [
       1091.06,
       691.68
      ],
      [
       1089.35,
       695.29
      ],
      [
       1089.26,
       697.29
      ]
     ]
    ]
   },
   "properties": {
    "objectType": "cell",
    "classification": {
     "names": [
      "Tumor",
      "Immune cells"
     ],
     "color": [
      0,
      255,
      127
     ]
    }
   }
  },
  {
   "type": "Feature",
   "id": "8162ca37-0d4a-4136-bf41-e3d0e8055a9d",
   "geometry": {
    "type": "Polygon",
    "coordinates": [
     [
      [
       1080,
       708.27
      ],
      [
       1080.13,
       710.27
      ],
      [
       1081.26,
       711.92
      ],
      [
       1083.2,
       712.4
      ],
      [
       1089.16,
       712
      ],
      [
       1094.66,
       709.67
      ],
      [
       1095.94,
       708.13
      ],
      [
       1091.9,
       701.24
      ],
      [
       1090.01,
       699.68
      ],
      [
       1088.02,
       699.49
      ],
      [
       1080.87,
       706.47
      ],
      [
       1080,
       708.27
      ]
     ]
    ]
   },
   "properties": {
    "objectType": "cell",
    "classification": {
     "names": [
      "Tumor",
      "Immune cells"
     ],
     "color": [
      0,
      255,
      127
     ]
    }
   }
  },
  {
   "type": "Feature",
   "id": "c29ea3b0-6ef1-431d-bd30-d39e9bbc9ab8",
   "geometry": {
    "type": "Polygon",
    "coordinates": [
     [
      [
       1133,
       726.58
      ],
      [
       1133.76,
       728.43
      ],
      [
       1141.1,
       737.82
      ],
      [
       1143.09,
       738
      ],
      [
       1144.88,
       737.12
      ],
      [
       1149.65,
       730.71
      ],
      [
       1150,
       728.74
      ],
      [
       1148.47,
       722.94
      ],
      [
       1147.31,
       721.31
      ],
      [
       1143.28,
       720
      ],
      [
       1135.28,
       720
      ],
      [
       1133.38,
       720.62
      ],
      [
       1133,
       726.58
      ]
     ]
    ]
   },
   "properties": {
    "objectType": "cell",
    "classification": {
     "names": [
      "Tumor",
      "Immune cells"
     ],
     "color": [
      0,
      255,
      127
     ]
    }
   }
  },
  {
   "type": "Feature",
   "id": "a5bcbb0d-236f-4646-ba85-ae0eb11cddb3",
   "geometry": {
    "type": "Polygon",
    "coordinates": [
     [
      [
       657.5,
       761.84
      ],
      [
       659.22,
       765.45
      ],
      [
       662.48,
       767.67
      ],
      [
       664.36,
       766.97
      ],
      [
       667.19,
       764.14
      ],
      [
       669,
       760.6
      ],
      [
       670.83,
       750.83
      ],
      [
       665.47,
       748.26
      ],
      [
       663.87,
       749.46
      ],
      [
       660.6,
       756.73
      ],
      [
       657.5,
       761.84
      ]
     ]
    ]
   },
   "properties": {
    "objectType": "cell",
    "classification": {
     "names": [
      "Tumor",
      "Immune cells"
     ],
     "color": [
      0,
      255,
      127
     ]
    }
   }
  },
  {
   "type": "Feature",
   "id": "17669f8c-a0c5-45c8-804f-ebedd6f27c8c",
   "geometry": {
    "type": "Polygon",
    "coordinates": [
     [
      [
       1063.86,
       761.29
      ],
      [
       1063.95,
       763.28
      ],
      [
       1068.61,
       766.92
      ],
      [
       1079.59,
       762.2
      ],
      [
       1085.46,
       762.77
      ],
      [
       1087.07,
       761.59
      ],
      [
       1087,
       757.63
      ],
      [
       1087.95,
       753.77
      ],
      [
       1086.33,
       748
      ],
      [
       1085.05,
       746.21
      ],
      [
       1079.28,
       747.74
      ],
      [
       1073.39,
       748.61
      ],
      [
       1065.65,
       757.71
      ],
      [
       1063.86,
       761.29
      ]
     ]
    ]
   },
   "properties": {
    "objectType": "cell",
    "classification": {
     "names": [
      "Tumor",
      "Immune cells"
     ],
     "color": [
      0,
      255,
      127
     ]
    }
   }
  },
  {
   "type": "Feature",
   "id": "26e2b66e-f361-4fae-9a86-c861ad08282c",
   "geometry": {
    "type": "Polygon",
    "coordinates": [
     [
      [
       1105,
       759.9
      ],
      [
       1105,
       765.9
      ],
      [
       1106.6,
       773.67
      ],
      [
       1108.55,
       773.22
      ],
      [
       1115.41,
       769.17
      ],
      [
       1117.3,
       763.49
      ],
      [
       1116.87,
       761.53
      ],
      [
       1109.33,
       755
      ],
      [
       1107.9,
       754.76
      ],
      [
       1105.52,
       757.97
      ],
      [
       1105,
       759.9
      ]
     ]
    ]
   },
   "properties": {
    "objectType": "cell",
    "classification": {
     "names": [
      "Tumor",
      "Immune cells"
     ],
     "color": [
      0,
      255,
      127
     ]
    }
   }
  },
  {
   "type": "Feature",
   "id": "d6fb096f-227c-466d-958a-e471cde82793",
   "geometry": {
    "type": "Polygon",
    "coordinates": [
     [
      [
       866,
       756.45
      ],
      [
       866.87,
       760.33
      ],
      [
       867,
       770.33
      ],
      [
       869.66,
       775.66
      ],
      [
       871.58,
       775.09
      ],
      [
       878.65,
       768.02
      ],
      [
       881.59,
       762.81
      ],
      [
       882.97,
       759.06
      ],
      [
       882.16,
       757.23
      ],
      [
       878.33,
       756.07
      ],
      [
       872.33,
       756
      ],
      [
       871.36,
       755.24
      ],
      [
       867.38,
       755
      ],
      [
       866,
       756.45
      ]
     ]
    ]
   },
   "properties": {
    "objectType": "cell",
    "classification": {
     "names": [
      "Tumor",
      "Immune cells"
     ],
     "color": [
      0,
      255,
      127
     ]
    }
   }
  },
  {
   "type": "Feature",
   "id": "572213d0-893d-4da5-a014-fa6b8d0e18bb",
   "geometry": {
    "type": "Polygon",
    "coordinates": [
     [
      [
       849.77,
       763.56
      ],
      [
       850.19,
       765.52
      ],
      [
       853.67,
       770.35
      ],
      [
       854.15,
       772.3
      ],
      [
       857.74,
       777.07
      ],
      [
       860.76,
       779.67
      ],
      [
       864.69,
       779
      ],
      [
       867.72,
       776.57
      ],
      [
       867.71,
       774.57
      ],
      [
       866.18,
       770.88
      ],
      [
       866,
       760.89
      ],
      [
       864.97,
       754.97
      ],
      [
       863.22,
       754
      ],
      [
       857.26,
       754.37
      ],
      [
       852.88,
       758.46
      ],
      [
       849.77,
       763.56
      ]
     ]
    ]
   },
   "properties": {
    "objectType": "cell",
    "classification": {
     "names": [
      "Tumor",
      "Immune cells"
     ],
     "color": [
      0,
      255,
      127
     ]
    }
   }
  },
  {
   "type": "Feature",
   "id": "e2fad99a-ac2c-40ce-a7d7-4a4bbe5854a2",
   "geometry": {
    "type": "Polygon",
    "coordinates": [
     [
      [
       1086.37,
       763.43
      ],
      [
       1088.11,
       775.22
      ],
      [
       1090.91,
       777.95
      ],
      [
       1098.91,
       778
      ],
      [
       1103.76,
       774.57
      ],
      [
       1105,
       770.89
      ],
      [
       1104,
       766.96
      ],
      [
       1103.99,
       760.96
      ],
      [
       1103.03,
       759.21
      ],
      [
       1091.19,
       760
      ],
      [
       1086.37,
       763.43
      ]
     ]
    ]
   },
   "properties": {
    "objectType": "cell",
    "classification": {
     "names": [
      "Tumor",
      "Immune cells"
     ],
     "color": [
      0,
      255,
      127
     ]
    }
   }
  },
  {
   "type": "Feature",
   "id": "1413fd24-8b00-4fd2-b348-2db22802fa4a",
   "geometry": {
    "type": "Polygon",
    "coordinates": [
     [
      [
       826.33,
       765.63
      ],
      [
       828.07,
       771.33
      ],
      [
       829.55,
       772.67
      ],
      [
       836.86,
       769.47
      ],
      [
       839.64,
       766.6
      ],
      [
       838.58,
       764.91
      ],
      [
       832.48,
       761.32
      ],
      [
       830.48,
       761.3
      ],
      [
       826.33,
       765.63
      ]
     ]
    ]
   },
   "properties": {
    "objectType": "cell",
    "classification": {
     "names": [
      "Tumor",
      "Immune cells"
     ],
     "color": [
      0,
      255,
      127
     ]
    }
   }
  },
  {
   "type": "Feature",
   "id": "4d1523f0-d4f3-476d-8d7a-5f2235339f6a",
   "geometry": {
    "type": "Polygon",
    "coordinates": [
     [
      [
       1202.13,
       768.65
      ],
      [
       1203.08,
       770.41
      ],
      [
       1206.6,
       772.3
      ],
      [
       1211.37,
       775.87
      ],
      [
       1217.35,
       776.27
      ],
      [
       1222.53,
       779.26
      ],
      [
       1224.46,
       779.77
      ],
      [
       1228.22,
       778.39
      ],
      [
       1231.07,
       775.59
      ],
      [
       1233.47,
       770.14
      ],
      [
       1229.38,
       765.76
      ],
      [
       1228.48,
       763.97
      ],
      [
       1222.9,
       758.24
      ],
      [
       1219.72,
       756.06
      ],
      [
       1216.2,
       757.9
      ],
      [
       1210.2,
       758
      ],
      [
       1208.42,
       758.91
      ],
      [
       1204.18,
       763.15
      ],
      [
       1202.27,
       766.66
      ],
      [
       1202.13,
       768.65
      ]
     ]
    ]
   },
   "properties": {
    "objectType": "cell",
    "classification": {
     "names": [
      "Tumor",
      "Immune cells"
     ],
     "color": [
      0,
      255,
      127
     ]
    }
   }
  },
  {
   "type": "Feature",
   "id": "f8dc537b-fbee-4ceb-94be-0fc5307eb1bc",
   "geometry": {
    "type": "Polygon",
    "coordinates": [
     [
      [
       769.02,
       767.91
      ],
      [
       771.95,
       779.43
      ],
      [
       777.91,
       779
      ],
      [
       781.76,
       779.62
      ],
      [
       782.98,
       778.04
      ],
      [
       783.59,
       768.19
      ],
      [
       780.09,
       760.76
      ],
      [
       774.35,
       762.33
      ],
      [
       769.65,
       766.01
      ],
      [
       769.02,
       767.91
      ]
     ]
    ]
   },
   "properties": {
    "objectType": "cell",
    "classification": {
     "names": [
      "Tumor",
      "Immune cells"
     ],
     "color": [
      0,
      255,
      127
     ]
    }
   }
  },
  {
   "type": "Feature",
   "id": "7cd8dce5-4f76-4a9b-8b5e-510bfe38f90f",
   "geometry": {
    "type": "Polygon",
    "coordinates": [
     [
      [
       829.59,
       774.08
      ],
      [
       830.44,
       775.89
      ],
      [
       832.4,
       776.28
      ],
      [
       836.77,
       780.39
      ],
      [
       843.42,
       784.67
      ],
      [
       846,
       775.81
      ],
      [
       846,
       767.81
      ],
      [
       845.05,
       766.05
      ],
      [
       841.13,
       766.54
      ],
      [
       836.75,
       770.63
      ],
      [
       829.59,
       774.08
      ]
     ]
    ]
   },
   "properties": {
    "objectType": "cell",
    "classification": {
     "names": [
      "Tumor",
      "Immune cells"
     ],
     "color": [
      0,
      255,
      127
     ]
    }
   }
  },
  {
   "type": "Feature",
   "id": "0caca7b2-aaf7-4b73-b838-6d51a242b7ee",
   "geometry": {
    "type": "Polygon",
    "coordinates": [
     [
      [
       845,
       782.1
      ],
      [
       845.09,
       784.09
      ],
      [
       848.88,
       785
      ],
      [
       854.71,
       783.62
      ],
      [
       858.45,
       779.01
      ],
      [
       853.4,
       772.8
      ],
      [
       852.78,
       770.9
      ],
      [
       848.22,
       765.15
      ],
      [
       846.69,
       766.43
      ],
      [
       846.8,
       776.39
      ],
      [
       845,
       782.1
      ]
     ]
    ]
   },
   "properties": {
    "objectType": "cell",
    "classification": {
     "names": [
      "Tumor",
      "Immune cells"
     ],
     "color": [
      0,
      255,
      127
     ]
    }
   }
  },
  {
   "type": "Feature",
   "id": "bc35a3fd-2a12-4df7-ade0-52bb43b5ef5b",
   "geometry": {
    "type": "Polygon",
    "coordinates": [
     [
      [
       767,
       787.18
      ],
      [
       767.17,
       793.17
      ],
      [
       770.77,
       794.88
      ],
      [
       772.59,
       794.07
      ],
      [
       776.97,
       790.06
      ],
      [
       780.24,
       782.78
      ],
      [
       779.33,
       781
      ],
      [
       777.57,
       780
      ],
      [
       773.58,
       780.21
      ],
      [
       771.79,
       781.1
      ],
      [
       767.44,
       785.23
      ],
      [
       767,
       787.18
      ]
     ]
    ]
   },
   "properties": {
    "objectType": "cell",
    "classification": {
     "names": [
      "Tumor",
      "Immune cells"
     ],
     "color": [
      0,
      255,
      127
     ]
    }
   }
  },
  {
   "type": "Feature",
   "id": "ef58b250-ea49-429c-bf19-959713cb092e",
   "geometry": {
    "type": "Polygon",
    "coordinates": [
     [
      [
       772.06,
       795.87
      ],
      [
       775.42,
       800.76
      ],
      [
       777.2,
       801.67
      ],
      [
       780.77,
       799.9
      ],
      [
       783.6,
       797.07
      ],
      [
       787,
       795
      ],
      [
       790.89,
       790.44
      ],
      [
       791.67,
       788.6
      ],
      [
       788.02,
       781.51
      ],
      [
       782.93,
       779.74
      ],
      [
       777.75,
       790.5
      ],
      [
       776.56,
       792.11
      ],
      [
       773.14,
       794.19
      ],
      [
       772.06,
       795.87
      ]
     ]
    ]
   },
   "properties": {
    "objectType": "cell",
    "classification": {
     "names": [
      "Tumor",
      "Immune cells"
     ],
     "color": [
      0,
      255,
      127
     ]
    }
   }
  },
  {
   "type": "Feature",
   "id": "c8dc29a8-0b20-4e32-a65e-6d3a6e02ab47",
   "geometry": {
    "type": "Polygon",
    "coordinates": [
     [
      [
       1036,
       802.09
      ],
      [
       1036.96,
       805.93
      ],
      [
       1038.4,
       807.32
      ],
      [
       1045.86,
       804.57
      ],
      [
       1049.22,
       802.44
      ],
      [
       1052.9,
       797.8
      ],
      [
       1052,
       791.94
      ],
      [
       1050.57,
       788.24
      ],
      [
       1046.5,
       785.33
      ],
      [
       1044.5,
       785.3
      ],
      [
       1037.45,
       792.28
      ],
      [
       1036,
       802.09
      ]
     ]
    ]
   },
   "properties": {
    "objectType": "cell",
    "classification": {
     "names": [
      "Tumor",
      "Immune cells"
     ],
     "color": [
      0,
      255,
      127
     ]
    }
   }
  },
  {
   "type": "Feature",
   "id": "769b5a3e-2450-4810-851f-6777b2306aff",
   "geometry": {
    "type": "Polygon",
    "coordinates": [
     [
      [
       757.28,
       803.58
      ],
      [
       757.41,
       807.58
      ],
      [
       759,
       811.25
      ],
      [
       759.05,
       815.25
      ],
      [
       760.01,
       817
      ],
      [
       763.62,
       818.72
      ],
      [
       771.33,
       820.66
      ],
      [
       775.68,
       816.64
      ],
      [
       776,
       814.66
      ],
      [
       775.74,
       802.68
      ],
      [
       770.97,
       796.3
      ],
      [
       769.33,
       795.16
      ],
      [
       765.67,
       795
      ],
      [
       757.28,
       803.58
      ]
     ]
    ]
   },
   "properties": {
    "objectType": "cell",
    "classification": {
     "names": [
      "Tumor",
      "Immune cells"
     ],
     "color": [
      0,
      255,
      127
     ]
    }
   }
  },
  {
   "type": "Feature",
   "id": "91aba5ad-071c-444b-b8c2-ebc2afe439f8",
   "geometry": {
    "type": "Polygon",
    "coordinates": [
     [
      [
       1220,
       802.57
      ],
      [
       1220.28,
       808.55
      ],
      [
       1221.77,
       809.88
      ],
      [
       1223.75,
       809.62
      ],
      [
       1229.29,
       807.35
      ],
      [
       1234.99,
       805.5
      ],
      [
       1236.76,
       804.57
      ],
      [
       1237.82,
       802.88
      ],
      [
       1238.67,
       799
      ],
      [
       1238.4,
       797.28
      ],
      [
       1232.42,
       797
      ],
      [
       1230.44,
       797.28
      ],
      [
       1226.84,
       799.03
      ],
      [
       1221.19,
       800.96
      ],
      [
       1220,
       802.57
      ]
     ]
    ]
   },
   "properties": {
    "objectType": "cell",
    "classification": {
     "names": [
      "Tumor",
      "Immune cells"
     ],
     "color": [
      0,
      255,
      127
     ]
    }
   }
  },
  {
   "type": "Feature",
   "id": "24c40817-5faf-4854-b07a-cbd1fcefe117",
   "geometry": {
    "type": "Polygon",
    "coordinates": [
     [
      [
       730.16,
       811.32
      ],
      [
       731.56,
       817.11
      ],
      [
       732.62,
       818.81
      ],
      [
       734.4,
       819.7
      ],
      [
       738.36,
       819.73
      ],
      [
       742.7,
       815.59
      ],
      [
       745.18,
       812.49
      ],
      [
       749.13,
       811.94
      ],
      [
       753.74,
       808.13
      ],
      [
       755.53,
       807.24
      ],
      [
       756.17,
       805.34
      ],
      [
       755.68,
       803.41
      ],
      [
       745.67,
       797
      ],
      [
       741.68,
       797.16
      ],
      [
       740.03,
       798.3
      ],
      [
       736.21,
       799.46
      ],
      [
       731.97,
       803.7
      ],
      [
       730.33,
       807.35
      ],
      [
       730.16,
       811.32
      ]
     ]
    ]
   },
   "properties": {
    "objectType": "cell",
    "classification": {
     "names": [
      "Tumor",
      "Immune cells"
     ],
     "color": [
      0,
      255,
      127
     ]
    }
   }
  },
  {
   "type": "Feature",
   "id": "563d9972-9c19-41bf-a3b7-f2d0d6929bdd",
   "geometry": {
    "type": "Polygon",
    "coordinates": [
     [
      [
       739.33,
       820.48
      ],
      [
       740.03,
       822.36
      ],
      [
       745.89,
       827.78
      ],
      [
       747.89,
       827.82
      ],
      [
       749.58,
       826.76
      ],
      [
       752.05,
       823.62
      ],
      [
       757.58,
       817.84
      ],
      [
       758,
       811.89
      ],
      [
       756.62,
       808.33
      ],
      [
       752.86,
       809.57
      ],
      [
       749.99,
       812.35
      ],
      [
       744.34,
       814.33
      ],
      [
       743.44,
       816.11
      ],
      [
       739.33,
       820.48
      ]
     ]
    ]
   },
   "properties": {
    "objectType": "cell",
    "classification": {
     "names": [
      "Tumor",
      "Immune cells"
     ],
     "color": [
      0,
      255,
      127
     ]
    }
   }
  },
  {
   "type": "Feature",
   "id": "6a839e6b-d439-4cb5-82fd-0fbc09026683",
   "geometry": {
    "type": "Polygon",
    "coordinates": [
     [
      [
       0,
       0
      ],
      [
       0,
       3139
      ],
      [
       2511,
       3139
      ],
      [
       2511,
       0
      ],
      [
       0,
       0
      ]
     ]
    ]
   },
   "properties": {
    "objectType": "annotation",
    "isLocked": true
   }
  },
  {
   "type": "Feature",
   "id": "9c0c5384-7dd8-4c33-8a6f-b4983660c8e0",
   "geometry": {
    "type": "Polygon",
    "coordinates": [
     [
      [
       359.18,
       33.64
      ],
      [
       359.32,
       41.61
      ],
      [
       363.61,
       45.8
      ],
      [
       367.37,
       47
      ],
      [
       379.37,
       47
      ],
      [
       381.27,
       46.37
      ],
      [
       385.46,
       42.08
      ],
      [
       386,
       40.15
      ],
      [
       385.6,
       32.19
      ],
      [
       380.65,
       27.43
      ],
      [
       374.7,
       27
      ],
      [
       370.83,
       28
      ],
      [
       364.83,
       28.08
      ],
      [
       359.18,
       33.64
      ]
     ]
    ]
   },
   "properties": {
    "objectType": "cell"
   }
  },
  {
   "type": "Feature",
   "id": "ead168b7-ff61-4865-a178-27bdbafc8c27",
   "geometry": {
    "type": "Polygon",
    "coordinates": [
     [
      [
       1080.13,
       57.34
      ],
      [
       1080.62,
       63.24
      ],
      [
       1086.43,
       68.72
      ],
      [
       1092.39,
       68.72
      ],
      [
       1096.25,
       67.87
      ],
      [
       1100.6,
       63.8
      ],
      [
       1101.23,
       59.85
      ],
      [
       1103.89,
       54.53
      ],
      [
       1104,
       48.53
      ],
      [
       1103.32,
       46.65
      ],
      [
       1098.59,
       43
      ],
      [
       1090.6,
       43.2
      ],
      [
       1084.73,
       48.6
      ],
      [
       1080.13,
       57.34
      ]
     ]
    ]
   },
   "properties": {
    "objectType": "cell"
   }
  },
  {
   "type": "Feature",
   "id": "22151015-f13e-4cfa-b81a-e14a4dc57a5d",
   "geometry": {
    "type": "Polygon",
    "coordinates": [
     [
      [
       147.03,
       98.06
      ],
      [
       149.12,
       101.45
      ],
      [
       151.95,
       104.28
      ],
      [
       153.83,
       104.97
      ],
      [
       159.79,
       104.6
      ],
      [
       163.17,
       102.5
      ],
      [
       167.39,
       98.23
      ],
      [
       167.87,
       92.33
      ],
      [
       166.32,
       88.65
      ],
      [
       162.8,
       85.54
      ],
      [
       156.88,
       85
      ],
      [
       153.19,
       86.48
      ],
      [
       147.53,
       92.14
      ],
      [
       147.03,
       98.06
      ]
     ]
    ]
   },
   "properties": {
    "objectType": "cell"
   }
  },
  {
   "type": "Feature",
   "id": "3da7bd6b-3a3e-490b-a02e-513dd527af96",
   "geometry": {
    "type": "Polygon",
    "coordinates": [
     [
      [
       825,
       111.19
      ],
      [
       825.04,
       117.19
      ],
      [
       825.73,
       119.07
      ],
      [
       831.41,
       124.7
      ],
      [
       835.16,
       126
      ],
      [
       839.14,
       125.77
      ],
      [
       842.7,
       123.97
      ],
      [
       845.46,
       121.08
      ],
      [
       846,
       119.15
      ],
      [
       845.6,
       111.19
      ],
      [
       840.63,
       106.42
      ],
      [
       830.68,
       106
      ],
      [
       828.77,
       106.61
      ],
      [
       825,
       111.19
      ]
     ]
    ]
   },
   "properties": {
    "objectType": "cell"
   }
  },
  {
   "type": "Feature",
   "id": "0b06a95f-3b4d-4426-b03d-5999e79a3c06",
   "geometry": {
    "type": "Polygon",
    "coordinates": [
     [
      [
       501,
       125.1
      ],
      [
       501.05,
       135.1
      ],
      [
       503.23,
       138.45
      ],
      [
       508.83,
       144.16
      ],
      [
       510.67,
       144.93
      ],
      [
       516.67,
       145
      ],
      [
       518.49,
       144.17
      ],
      [
       522.6,
       139.81
      ],
      [
       522.77,
       131.86
      ],
      [
       521.61,
       130.23
      ],
      [
       519.32,
       122.65
      ],
      [
       514.37,
       119
      ],
      [
       506.39,
       119.3
      ],
      [
       501,
       125.1
      ]
     ]
    ]
   },
   "properties": {
    "objectType": "cell"
   }
  },
  {
   "type": "Feature",
   "id": "b6e22ca0-7fdb-4598-ae55-5dedce184f33",
   "geometry": {
    "type": "Polygon",
    "coordinates": [
     [
      [
       952.03,
       197.16
      ],
      [
       952.71,
       199.04
      ],
      [
       955.54,
       201.87
      ],
      [
       961.1,
       204
      ],
      [
       967.1,
       203.98
      ],
      [
       968.99,
       203.34
      ],
      [
       974.65,
       197.68
      ],
      [
       974.86,
       191.72
      ],
      [
       970.9,
       187.24
      ],
      [
       968.16,
       185.1
      ],
      [
       960.16,
       185
      ],
      [
       956.7,
       186.97
      ],
      [
       952.45,
       191.21
      ],
      [
       952.03,
       197.16
      ]
     ]
    ]
   },
   "properties": {
    "objectType": "cell"
   }
  },
  {
   "type": "Feature",
   "id": "4e7c717d-4bb0-407b-94e8-2dfdc2ecf300",
   "geometry": {
    "type": "Polygon",
    "coordinates": [
     [
      [
       117.07,
       249.37
      ],
      [
       117.87,
       251.2
      ],
      [
       122.11,
       255.44
      ],
      [
       128.03,
       255.99
      ],
      [
       129.94,
       255.39
      ],
      [
       137.01,
       248.32
      ],
      [
       137.89,
       246.53
      ],
      [
       138,
       240.53
      ],
      [
       137.32,
       238.65
      ],
      [
       133.23,
       235.15
      ],
      [
       129.24,
       235
      ],
      [
       121.61,
       237.2
      ],
      [
       117.32,
       241.39
      ],
      [
       117.07,
       249.37
      ]
     ]
    ]
   },
   "properties": {
    "objectType": "cell"
   }
  },
  {
   "type": "Feature",
   "id": "e5afae9b-eb23-4b57-84b9-65ff3e93cf39",
   "geometry": {
    "type": "Polygon",
    "coordinates": [
     [
      [
       304,
       313.75
      ],
      [
       305.12,
       319.61
      ],
      [
       308.88,
       324.21
      ],
      [
       312.43,
       326
      ],
      [
       318.42,
       325.79
      ],
      [
       323.18,
       322.16
      ],
      [
       326.89,
       317.54
      ],
      [
       326.71,
       311.56
      ],
      [
       323.32,
       306.65
      ],
      [
       319.28,
       303.19
      ],
      [
       311.29,
       303
      ],
      [
       309.48,
       303.85
      ],
      [
       304.12,
       309.76
      ],
      [
       304,
       313.75
      ]
     ]
    ]
   },
   "properties": {
    "objectType": "cell"
   }
  },
  {
   "type": "Feature",
   "id": "38ed6759-b036-4f15-b625-bdf9cac0a50a",
   "geometry": {
    "type": "Polygon",
    "coordinates": [
     [
      [
       1014,
       348.72
      ],
      [
       1014.86,
       350.52
      ],
      [
       1019.23,
       354.62
      ],
      [
       1022.97,
       355.99
      ],
      [
       1028.97,
       356
      ],
      [
       1036.34,
       349.32
      ],
      [
       1036.89,
       343.44
      ],
      [
       1033.16,
       338.82
      ],
      [
       1028.68,
       337
      ],
      [
       1022.68,
       337
      ],
      [
       1019.05,
       338.62
      ],
      [
       1014.8,
       342.86
      ],
      [
       1014,
       348.72
      ]
     ]
    ]
   },
   "properties": {
    "objectType": "cell"
   }
  },
  {
   "type": "Feature",
   "id": "3a5b3e4b-a853-4033-8228-6b5bb34f07ad",
   "geometry": {
    "type": "Polygon",
    "coordinates": [
     [
      [
       997.13,
       366.65
      ],
      [
       1000.91,
       371.24
      ],
      [
       1005.68,
       374.84
      ],
      [
       1007.52,
       375.6
      ],
      [
       1009.46,
       375.11
      ],
      [
       1015.46,
       375
      ],
      [
       1017.34,
       374.32
      ],
      [
       1018,
       372.43
      ],
      [
       1017.89,
       366.44
      ],
      [
       1016.98,
       364.65
      ],
      [
       1014.16,
       361.82
      ],
      [
       1009.87,
       360
      ],
      [
       1003.87,
       360
      ],
      [
       1001.94,
       360.53
      ],
      [
       997.64,
       364.72
      ],
      [
       997.13,
       366.65
      ]
     ]
    ]
   },
   "properties": {
    "objectType": "cell"
   }
  },
  {
   "type": "Feature",
   "id": "c5f6a9e3-27b4-4a2b-bfd6-eb65138e67b9",
   "geometry": {
    "type": "Polygon",
    "coordinates": [
     [
      [
       190,
       395.99
      ],
      [
       190.47,
       401.94
      ],
      [
       196.14,
       407.57
      ],
      [
       202.08,
       407.78
      ],
      [
       207.95,
       402.38
      ],
      [
       213.99,
       394.51
      ],
      [
       221.67,
       392.67
      ],
      [
       225.74,
       388.28
      ],
      [
       225.86,
       382.3
      ],
      [
       221.01,
       376.02
      ],
      [
       221,
       372.02
      ],
      [
       217.08,
       367.54
      ],
      [
       208.66,
       365
      ],
      [
       202.76,
       365.62
      ],
      [
       198.55,
       369.9
      ],
      [
       195.18,
       377.11
      ],
      [
       193.46,
       388.87
      ],
      [
       190,
       395.99
      ]
     ]
    ]
   },
   "properties": {
    "objectType": "cell"
   }
  },
  {
   "type": "Feature",
   "id": "e3f31ffd-45ff-4dbb-b35e-bddee16f4b00",
   "geometry": {
    "type": "Polygon",
    "coordinates": [
     [
      [
       983.07,
       397.35
      ],
      [
       983.86,
       399.19
      ],
      [
       988.1,
       403.43
      ],
      [
       990.02,
       403.99
      ],
      [
       991.73,
       402.94
      ],
      [
       997.38,
       397.28
      ],
      [
       999.14,
       396.33
      ],
      [
       1001.03,
       396.99
      ],
      [
       1004.35,
       394.98
      ],
      [
       1004.33,
       392.98
      ],
      [
       1005.39,
       391.28
      ],
      [
       1008.53,
       388.8
      ],
      [
       1012.17,
       387.16
      ],
      [
       1014.77,
       384.13
      ],
      [
       1017,
       378.58
      ],
      [
       1016.61,
       376.61
      ],
      [
       1014.71,
       376
      ],
      [
       1006.73,
       376.36
      ],
      [
       1004.94,
       375.47
      ],
      [
       997.33,
       369
      ],
      [
       995.57,
       369.77
      ],
      [
       993.07,
       372.86
      ],
      [
       992.53,
       376.8
      ],
      [
       988.42,
       381.17
      ],
      [
       987.47,
       385.05
      ],
      [
       983.32,
       389.38
      ],
      [
       983.07,
       397.35
      ]
     ]
    ]
   },
   "properties": {
    "objectType": "cell"
   }
  },
  {
   "type": "Feature",
   "id": "c83cbfe8-4098-4217-83e7-28d62f586365",
   "geometry": {
    "type": "Polygon",
    "coordinates": [
     [
      [
       1015.74,
       384.52
      ],
      [
       1015.85,
       386.52
      ],
      [
       1018.67,
       389.35
      ],
      [
       1020.46,
       392.93
      ],
      [
       1024.6,
       397.27
      ],
      [
       1026.55,
       397.73
      ],
      [
       1030.97,
       393.7
      ],
      [
       1032.77,
       390.14
      ],
      [
       1032.6,
       384.19
      ],
      [
       1029.9,
       381.24
      ],
      [
       1026.42,
       379
      ],
      [
       1018.44,
       379.28
      ],
      [
       1015.74,
       384.52
      ]
     ]
    ]
   },
   "properties": {
    "objectType": "cell"
   }
  },
  {
   "type": "Feature",
   "id": "3e95308d-ad5e-4edc-a289-d04dd9f8cda3",
   "geometry": {
    "type": "Polygon",
    "coordinates": [
     [
      [
       1003.28,
       397.6
      ],
      [
       1003.3,
       399.6
      ],
      [
       1009.8,
       407.13
      ],
      [
       1011.74,
       407.63
      ],
      [
       1016.54,
       404.13
      ],
      [
       1020.15,
       402.43
      ],
      [
       1023.02,
       399.64
      ],
      [
       1023.93,
       397.86
      ],
      [
       1020.02,
       393.35
      ],
      [
       1016.9,
       388.24
      ],
      [
       1015.33,
       387
      ],
      [
       1013.61,
       387.06
      ],
      [
       1012.15,
       388.42
      ],
      [
       1006.8,
       391.1
      ],
      [
       1005.29,
       392.42
      ],
      [
       1005.65,
       394.39
      ],
      [
       1003.28,
       397.6
      ]
     ]
    ]
   },
   "properties": {
    "objectType": "cell"
   }
  },
  {
   "type": "Feature",
   "id": "7a7eb987-09a2-414c-984f-992a5cea4944",
   "geometry": {
    "type": "Polygon",
    "coordinates": [
     [
      [
       616.13,
       395.74
      ],
      [
       616.35,
       401.71
      ],
      [
       618.44,
       405.1
      ],
      [
       622.97,
       408.98
      ],
      [
       628.97,
       409
      ],
      [
       636.34,
       402.32
      ],
      [
       637,
       400.43
      ],
      [
       636.89,
       394.44
      ],
      [
       633.16,
       389.82
      ],
      [
       628.61,
       388
      ],
      [
       622.63,
       388.27
      ],
      [
       618.28,
       392.39
      ],
      [
       616.13,
       395.74
      ]
     ]
    ]
   },
   "properties": {
    "objectType": "cell"
   }
  },
  {
   "type": "Feature",
   "id": "c916a2bf-2505-467a-9c6a-f187a2c53037",
   "geometry": {
    "type": "Polygon",
    "coordinates": [
     [
      [
       991.26,
       405.52
      ],
      [
       992.15,
       407.31
      ],
      [
       997.94,
       412.79
      ],
      [
       1001.93,
       413
      ],
      [
       1005.67,
       411.66
      ],
      [
       1008.5,
       408.84
      ],
      [
       1008.19,
       406.86
      ],
      [
       1006.11,
       403.45
      ],
      [
       1002.03,
       399.06
      ],
      [
       999.26,
       397.18
      ],
      [
       997.41,
       397.92
      ],
      [
       991.75,
       403.58
      ],
      [
       991.26,
       405.52
      ]
     ]
    ]
   },
   "properties": {
    "objectType": "cell"
   }
  },
  {
   "type": "Feature",
   "id": "f9f56858-12bb-47a9-982b-cca8c23af92a",
   "geometry": {
    "type": "Polygon",
    "coordinates": [
     [
      [
       1176.26,
       459.72
      ],
      [
       1176.34,
       465.68
      ],
      [
       1184.29,
       474.63
      ],
      [
       1192.26,
       474.95
      ],
      [
       1194.12,
       474.22
      ],
      [
       1199.39,
       468.22
      ],
      [
       1200.89,
       464.53
      ],
      [
       1201,
       458.53
      ],
      [
       1200.32,
       456.65
      ],
      [
       1195.83,
       453
      ],
      [
       1187.83,
       453.08
      ],
      [
       1181.99,
       454.2
      ],
      [
       1176.26,
       459.72
      ]
     ]
    ]
   },
   "properties": {
    "objectType": "cell"
   }
  },
  {
   "type": "Feature",
   "id": "696aeec1-9951-43c8-9fad-cfc231093f82",
   "geometry": {
    "type": "Polygon",
    "coordinates": [
     [
      [
       1006,
       531.64
      ],
      [
       1006.13,
       537.64
      ],
      [
       1008.71,
       543.04
      ],
      [
       1011.53,
       545.87
      ],
      [
       1015.24,
       547.25
      ],
      [
       1021.97,
       551.49
      ],
      [
       1027.41,
       554
      ],
      [
       1029.4,
       553.8
      ],
      [
       1032.41,
       551.18
      ],
      [
       1035,
       545.78
      ],
      [
       1035.11,
       543.79
      ],
      [
       1041,
       535.8
      ],
      [
       1040.9,
       529.8
      ],
      [
       1035.33,
       524.16
      ],
      [
       1030.59,
       523
      ],
      [
       1026.61,
       523.28
      ],
      [
       1023.08,
       525
      ],
      [
       1017.22,
       525.89
      ],
      [
       1011.22,
       526
      ],
      [
       1006.63,
       529.74
      ],
      [
       1006,
       531.64
      ]
     ]
    ]
   },
   "properties": {
    "objectType": "cell"
   }
  },
  {
   "type": "Feature",
   "id": "54395428-35fb-46fd-a7d6-e414f1f412c7",
   "geometry": {
    "type": "Polygon",
    "coordinates": [
     [
      [
       1054,
       541.33
      ],
      [
       1055.77,
       544.87
      ],
      [
       1056.41,
       548.81
      ],
      [
       1061.93,
       554.59
      ],
      [
       1063.54,
       555.77
      ],
      [
       1065.53,
       556
      ],
      [
       1071.15,
       558
      ],
      [
       1073.08,
       557.46
      ],
      [
       1075.75,
       554.51
      ],
      [
       1076.29,
       550.54
      ],
      [
       1083.28,
       543.39
      ],
      [
       1084,
       541.53
      ],
      [
       1083.77,
       535.54
      ],
      [
       1079.76,
       531.1
      ],
      [
       1076.15,
       529.48
      ],
      [
       1071.9,
       525.24
      ],
      [
       1069.3,
       523.2
      ],
      [
       1063.31,
       523
      ],
      [
       1061.5,
       523.84
      ],
      [
       1057.25,
       528.08
      ],
      [
       1056.13,
       529.73
      ],
      [
       1056,
       531.73
      ],
      [
       1054.32,
       535.36
      ],
      [
       1054,
       541.33
      ]
     ]
    ]
   },
   "properties": {
    "objectType": "cell"
   }
  },
  {
   "type": "Feature",
   "id": "e839dd59-12e3-4516-9005-64103f40b7da",
   "geometry": {
    "type": "Polygon",
    "coordinates": [
     [
      [
       928,
       545.95
      ],
      [
       930.29,
       551.46
      ],
      [
       934.53,
       555.71
      ],
      [
       942.49,
       555.75
      ],
      [
       950.87,
       547.25
      ],
      [
       950.64,
       541.29
      ],
      [
       948.98,
       537.65
      ],
      [
       946.16,
       534.82
      ],
      [
       942.07,
       533
      ],
      [
       936.12,
       533.44
      ],
      [
       928.62,
       540.04
      ],
      [
       928,
       545.95
      ]
     ]
    ]
   },
   "properties": {
    "objectType": "cell"
   }
  },
  {
   "type": "Feature",
   "id": "8ab8ac08-6ce2-4859-afe3-751512602008",
   "geometry": {
    "type": "Polygon",
    "coordinates": [
     [
      [
       985,
       558.19
      ],
      [
       986.03,
       564.06
      ],
      [
       990,
       568.5
      ],
      [
       997.93,
       568.81
      ],
      [
       999.32,
       567.37
      ],
      [
       1000.71,
       561.59
      ],
      [
       1005,
       550.42
      ],
      [
       1004.72,
       548.44
      ],
      [
       1001.94,
       546
      ],
      [
       995.94,
       546.01
      ],
      [
       990.43,
       548.24
      ],
      [
       985.16,
       554.2
      ],
      [
       985,
       558.19
      ]
     ]
    ]
   },
   "properties": {
    "objectType": "cell"
   }
  },
  {
   "type": "Feature",
   "id": "c3a4acb5-f0ba-4d2c-a67a-957645639efb",
   "geometry": {
    "type": "Polygon",
    "coordinates": [
     [
      [
       1000.69,
       568.03
      ],
      [
       1005.26,
       571.85
      ],
      [
       1009.24,
       571.75
      ],
      [
       1013.05,
       564.75
      ],
      [
       1013.77,
       560.83
      ],
      [
       1014,
       552.89
      ],
      [
       1015,
       549.97
      ],
      [
       1014.16,
       548.16
      ],
      [
       1008.16,
       548
      ],
      [
       1006.47,
       549.06
      ],
      [
       1003.24,
       558.51
      ],
      [
       1001.45,
       562.09
      ],
      [
       1000.69,
       568.03
      ]
     ]
    ]
   },
   "properties": {
    "objectType": "cell"
   }
  },
  {
   "type": "Feature",
   "id": "e23ed9b3-eac8-44b9-9572-474cbc20c4e5",
   "geometry": {
    "type": "Polygon",
    "coordinates": [
     [
      [
       1011.33,
       571.14
      ],
      [
       1013.87,
       574.21
      ],
      [
       1015.86,
       574.48
      ],
      [
       1021.51,
       568.82
      ],
      [
       1024.64,
       563.72
      ],
      [
       1030.29,
       558.05
      ],
      [
       1029.78,
       556.11
      ],
      [
       1022.57,
       552.78
      ],
      [
       1017.33,
       550
      ],
      [
       1015.91,
       550.18
      ],
      [
       1015.02,
       551.97
      ],
      [
       1014.97,
       561.86
      ],
      [
       1011.33,
       571.14
      ]
     ]
    ]
   },
   "properties": {
    "objectType": "cell"
   }
  }
 ]
}